start=new Date('2022-05-19T00:00:00.000Z').valueOf();
sats=[{"INCLINATION":"53.0529","OBJECT_ID":"2020-070R","CLASSIFICATION_TYPE":"U","BSTAR":"0.00016234000000","EPHEMERIS_TYPE":"0","MEAN_ANOMALY":"285.1183","TLE_LINE1":"1 46547U 20070R   22138.72451360  .00002137  00000-0  16234-3 0  9991","PERIOD":"95.592","COUNTRY_CODE":"US","EPOCH":"2022-05-18T17:23:17.975040","ECCENTRICITY":"0.00015010","ARG_OF_PERICENTER":"74.9972","RA_OF_ASC_NODE":"300.9006","MEAN_MOTION_DDOT":"0.0000000000000","TLE_LINE2":"2 46547  53.0529 300.9006 0001501  74.9972 285.1183 15.06397775 89853","OBJECT_NAME":"STARLINK-1698","DECAY_DATE":null,"CENTER_NAME":"EARTH","MEAN_ELEMENT_THEORY":"SGP4","FILE":"3452356","REV_AT_EPOCH":"8985","NORAD_CAT_ID":"46547","RCS_SIZE":"LARGE","TIME_SYSTEM":"UTC","ELEMENT_SET_NO":"999","MEAN_MOTION":"15.06397775","OBJECT_TYPE":"PAYLOAD","SITE":"AFETR","MEAN_MOTION_DOT":"0.00002137","PERIAPSIS":"546.181","GP_ID":"203905010","APOAPSIS":"548.260","LAUNCH_DATE":"2020-10-06","SEMIMAJOR_AXIS":"6925.355","REF_FRAME":"TEME"},{"ECCENTRICITY":"0.00015020","EPOCH":"2022-05-19T03:12:27.950112","RA_OF_ASC_NODE":"299.0697","ARG_OF_PERICENTER":"76.4192","TLE_LINE2":"2 46548  53.0550 299.0697 0001502  76.4192 283.6964 15.06405283 89937","MEAN_MOTION_DDOT":"0.0000000000000","DECAY_DATE":null,"OBJECT_NAME":"STARLINK-1699","CLASSIFICATION_TYPE":"U","OBJECT_ID":"2020-070S","INCLINATION":"53.0550","BSTAR":"-0.00000596790000","EPHEMERIS_TYPE":"0","COUNTRY_CODE":"US","PERIOD":"95.592","TLE_LINE1":"1 46548U 20070S   22139.13365683 -.00000370  00000-0 -59679-5 0  9991","MEAN_ANOMALY":"283.6964","MEAN_MOTION":"15.06405283","ELEMENT_SET_NO":"999","SITE":"AFETR","OBJECT_TYPE":"PAYLOAD","GP_ID":"203919442","MEAN_MOTION_DOT":"-0.00000370","PERIAPSIS":"546.157","REF_FRAME":"TEME","SEMIMAJOR_AXIS":"6925.332","LAUNCH_DATE":"2020-10-06","APOAPSIS":"548.238","CENTER_NAME":"EARTH","FILE":"3452825","MEAN_ELEMENT_THEORY":"SGP4","REV_AT_EPOCH":"8993","TIME_SYSTEM":"UTC","RCS_SIZE":"LARGE","NORAD_CAT_ID":"46548"},{"FILE":"3452356","MEAN_ELEMENT_THEORY":"SGP4","CENTER_NAME":"EARTH","RCS_SIZE":"LARGE","TIME_SYSTEM":"UTC","NORAD_CAT_ID":"46549","REV_AT_EPOCH":"8986","SITE":"AFETR","OBJECT_TYPE":"PAYLOAD","MEAN_MOTION":"15.06400524","ELEMENT_SET_NO":"999","SEMIMAJOR_AXIS":"6925.347","REF_FRAME":"TEME","APOAPSIS":"548.555","LAUNCH_DATE":"2020-10-06","MEAN_MOTION_DOT":"0.00001512","PERIAPSIS":"545.869","GP_ID":"203904010","BSTAR":"0.00012042000000","OBJECT_ID":"2020-070T","CLASSIFICATION_TYPE":"U","INCLINATION":"53.0546","TLE_LINE1":"1 46549U 20070T   22138.83141295  .00001512  00000-0  12042-3 0  9997","PERIOD":"95.592","COUNTRY_CODE":"US","MEAN_ANOMALY":"276.2533","EPHEMERIS_TYPE":"0","RA_OF_ASC_NODE":"300.4198","ARG_OF_PERICENTER":"83.8677","ECCENTRICITY":"0.00019390","EPOCH":"2022-05-18T19:57:14.078880","OBJECT_NAME":"STARLINK-1700","DECAY_DATE":null,"TLE_LINE2":"2 46549  53.0546 300.4198 0001939  83.8677 276.2533 15.06400524 89865","MEAN_MOTION_DDOT":"0.0000000000000"},{"OBJECT_ID":"2020-070U","CLASSIFICATION_TYPE":"U","INCLINATION":"53.0565","BSTAR":"0.00014448000000","EPHEMERIS_TYPE":"0","TLE_LINE1":"1 46550U 20070U   22138.75031730  .00001871  00000-0  14448-3 0  9992","PERIOD":"95.592","COUNTRY_CODE":"US","MEAN_ANOMALY":"291.8769","ECCENTRICITY":"0.00017890","EPOCH":"2022-05-18T18:00:27.414720","RA_OF_ASC_NODE":"300.7939","ARG_OF_PERICENTER":"68.2411","MEAN_MOTION_DDOT":"0.0000000000000","TLE_LINE2":"2 46550  53.0565 300.7939 0001789  68.2411 291.8769 15.06403509 89859","OBJECT_NAME":"STARLINK-1701","DECAY_DATE":null,"CENTER_NAME":"EARTH","FILE":"3452356","MEAN_ELEMENT_THEORY":"SGP4","REV_AT_EPOCH":"8985","RCS_SIZE":"LARGE","TIME_SYSTEM":"UTC","NORAD_CAT_ID":"46550","MEAN_MOTION":"15.06403509","ELEMENT_SET_NO":"999","SITE":"AFETR","OBJECT_TYPE":"PAYLOAD","MEAN_MOTION_DOT":"0.00001871","PERIAPSIS":"545.964","GP_ID":"203904260","SEMIMAJOR_AXIS":"6925.338","REF_FRAME":"TEME","APOAPSIS":"548.442","LAUNCH_DATE":"2020-10-06"},{"MEAN_MOTION":"15.06388005","ELEMENT_SET_NO":"999","SITE":"AFETR","OBJECT_TYPE":"PAYLOAD","GP_ID":"203905510","PERIAPSIS":"546.304","MEAN_MOTION_DOT":"0.00000349","REF_FRAME":"TEME","SEMIMAJOR_AXIS":"6925.385","LAUNCH_DATE":"2020-10-06","APOAPSIS":"548.196","CENTER_NAME":"EARTH","FILE":"3452356","MEAN_ELEMENT_THEORY":"SGP4","REV_AT_EPOCH":"9006","TIME_SYSTEM":"UTC","RCS_SIZE":"LARGE","NORAD_CAT_ID":"46552","ECCENTRICITY":"0.00013660","EPOCH":"2022-05-18T17:01:25.705920","RA_OF_ASC_NODE":"285.9579","ARG_OF_PERICENTER":"81.0953","MEAN_MOTION_DDOT":"0.0000000000000","TLE_LINE2":"2 46552  53.0549 285.9579 0001366  81.0953 279.0190 15.06388005 90066","DECAY_DATE":null,"OBJECT_NAME":"STARLINK-1649","CLASSIFICATION_TYPE":"U","OBJECT_ID":"2020-070W","INCLINATION":"53.0549","BSTAR":"0.00004233300000","EPHEMERIS_TYPE":"0","COUNTRY_CODE":"US","TLE_LINE1":"1 46552U 20070W   22138.70932530  .00000349  00000-0  42333-4 0  9991","PERIOD":"95.593","MEAN_ANOMALY":"279.0190"},{"SITE":"AFETR","OBJECT_TYPE":"PAYLOAD","MEAN_MOTION":"15.06410570","ELEMENT_SET_NO":"999","REF_FRAME":"TEME","SEMIMAJOR_AXIS":"6925.316","APOAPSIS":"548.194","LAUNCH_DATE":"2020-10-06","GP_ID":"203919093","PERIAPSIS":"546.169","MEAN_MOTION_DOT":"0.00001637","FILE":"3452798","MEAN_ELEMENT_THEORY":"SGP4","CENTER_NAME":"EARTH","TIME_SYSTEM":"UTC","RCS_SIZE":"LARGE","NORAD_CAT_ID":"46553","REV_AT_EPOCH":"9028","RA_OF_ASC_NODE":"270.8480","ARG_OF_PERICENTER":"70.8938","ECCENTRICITY":"0.00014620","EPOCH":"2022-05-18T17:41:50.560800","DECAY_DATE":null,"OBJECT_NAME":"STARLINK-1664","TLE_LINE2":"2 46553  53.0553 270.8480 0001462  70.8938 289.2209 15.06410570 90283","MEAN_MOTION_DDOT":"0.0000000000000","BSTAR":"0.00012875000000","CLASSIFICATION_TYPE":"U","OBJECT_ID":"2020-070X","INCLINATION":"53.0553","COUNTRY_CODE":"US","TLE_LINE1":"1 46553U 20070X   22138.73739075  .00001637  00000-0  12875-3 0  9992","PERIOD":"95.591","MEAN_ANOMALY":"289.2209","EPHEMERIS_TYPE":"0"},{"APOAPSIS":"548.466","LAUNCH_DATE":"2020-10-06","REF_FRAME":"TEME","SEMIMAJOR_AXIS":"6925.356","GP_ID":"203919695","PERIAPSIS":"545.975","MEAN_MOTION_DOT":"0.00003290","OBJECT_TYPE":"PAYLOAD","SITE":"AFETR","ELEMENT_SET_NO":"999","MEAN_MOTION":"15.06397714","NORAD_CAT_ID":"46554","TIME_SYSTEM":"UTC","RCS_SIZE":"LARGE","REV_AT_EPOCH":"9013","MEAN_ELEMENT_THEORY":"SGP4","FILE":"3452809","CENTER_NAME":"EARTH","DECAY_DATE":null,"OBJECT_NAME":"STARLINK-1671","MEAN_MOTION_DDOT":"0.0000000000000","TLE_LINE2":"2 46554  53.0588 284.1120 0001798  88.8353 271.2842 15.06397714 90135","ARG_OF_PERICENTER":"88.8353","RA_OF_ASC_NODE":"284.1120","EPOCH":"2022-05-19T02:55:53.150016","ECCENTRICITY":"0.00017980","MEAN_ANOMALY":"271.2842","COUNTRY_CODE":"US","PERIOD":"95.592","TLE_LINE1":"1 46554U 20070Y   22139.12214294  .00003290  00000-0  23965-3 0  9997","EPHEMERIS_TYPE":"0","BSTAR":"0.00023965000000","INCLINATION":"53.0588","CLASSIFICATION_TYPE":"U","OBJECT_ID":"2020-070Y"},{"ECCENTRICITY":"0.00014840","EPOCH":"2022-05-18T17:12:41.520672","RA_OF_ASC_NODE":"300.9371","ARG_OF_PERICENTER":"74.8167","MEAN_MOTION_DDOT":"0.0000000000000","TLE_LINE2":"2 46556  53.0538 300.9371 0001484  74.8167 285.2986 15.06402285 89858","OBJECT_NAME":"STARLINK-1676","DECAY_DATE":null,"OBJECT_ID":"2020-070AA","CLASSIFICATION_TYPE":"U","INCLINATION":"53.0538","BSTAR":"0.00016441000000","EPHEMERIS_TYPE":"0","PERIOD":"95.592","TLE_LINE1":"1 46556U 20070AA  22138.71714723  .00002168  00000-0  16441-3 0  9999","COUNTRY_CODE":"US","MEAN_ANOMALY":"285.2986","MEAN_MOTION":"15.06402285","ELEMENT_SET_NO":"999","SITE":"AFETR","OBJECT_TYPE":"PAYLOAD","PERIAPSIS":"546.179","MEAN_MOTION_DOT":"0.00002168","GP_ID":"203904760","SEMIMAJOR_AXIS":"6925.342","REF_FRAME":"TEME","LAUNCH_DATE":"2020-10-06","APOAPSIS":"548.234","CENTER_NAME":"EARTH","FILE":"3452356","MEAN_ELEMENT_THEORY":"SGP4","REV_AT_EPOCH":"8985","RCS_SIZE":"LARGE","TIME_SYSTEM":"UTC","NORAD_CAT_ID":"46556"},{"OBJECT_ID":"2020-070AB","CLASSIFICATION_TYPE":"U","INCLINATION":"53.0530","BSTAR":"-0.00001431000000","EPHEMERIS_TYPE":"0","TLE_LINE1":"1 46557U 20070AB  22138.82726404 -.00000495  00000-0 -14310-4 0  9998","PERIOD":"95.592","COUNTRY_CODE":"US","MEAN_ANOMALY":"275.0381","ECCENTRICITY":"0.00018050","EPOCH":"2022-05-18T19:51:15.613056","RA_OF_ASC_NODE":"285.4517","ARG_OF_PERICENTER":"85.0814","MEAN_MOTION_DDOT":"0.0000000000000","TLE_LINE2":"2 46557  53.0530 285.4517 0001805  85.0814 275.0381 15.06397418 90095","OBJECT_NAME":"STARLINK-1679","DECAY_DATE":null,"CENTER_NAME":"EARTH","FILE":"3452284","MEAN_ELEMENT_THEORY":"SGP4","REV_AT_EPOCH":"9009","RCS_SIZE":"LARGE","TIME_SYSTEM":"UTC","NORAD_CAT_ID":"46557","MEAN_MOTION":"15.06397418","ELEMENT_SET_NO":"999","SITE":"AFETR","OBJECT_TYPE":"PAYLOAD","MEAN_MOTION_DOT":"-0.00000495","PERIAPSIS":"545.971","GP_ID":"203881640","SEMIMAJOR_AXIS":"6925.356","REF_FRAME":"TEME","APOAPSIS":"548.471","LAUNCH_DATE":"2020-10-06"},{"CENTER_NAME":"EARTH","MEAN_ELEMENT_THEORY":"SGP4","FILE":"3452818","REV_AT_EPOCH":"9013","NORAD_CAT_ID":"46558","RCS_SIZE":"LARGE","TIME_SYSTEM":"UTC","ELEMENT_SET_NO":"999","MEAN_MOTION":"15.06392545","OBJECT_TYPE":"PAYLOAD","SITE":"AFETR","MEAN_MOTION_DOT":"0.00002409","PERIAPSIS":"546.004","GP_ID":"203919844","LAUNCH_DATE":"2020-10-06","APOAPSIS":"548.468","SEMIMAJOR_AXIS":"6925.371","REF_FRAME":"TEME","INCLINATION":"53.0523","OBJECT_ID":"2020-070AC","CLASSIFICATION_TYPE":"U","BSTAR":"0.00018058000000","EPHEMERIS_TYPE":"0","MEAN_ANOMALY":"281.5013","PERIOD":"95.593","TLE_LINE1":"1 46558U 20070AC  22139.10002774  .00002409  00000-0  18058-3 0  9995","COUNTRY_CODE":"US","EPOCH":"2022-05-19T02:24:02.396736","ECCENTRICITY":"0.00017790","ARG_OF_PERICENTER":"78.6175","RA_OF_ASC_NODE":"284.2058","MEAN_MOTION_DDOT":"0.0000000000000","TLE_LINE2":"2 46558  53.0523 284.2058 0001779  78.6175 281.5013 15.06392545 90138","OBJECT_NAME":"STARLINK-1680","DECAY_DATE":null}];
